ONEWEB-0324             
1 49193U 21083H   22021.58334491  .00037805  00000+0  95490-1 0  9994
2 49193  87.9086 295.0134 0002270  85.6040 106.7630 13.18666017  3289
ONEWEB-0325             
1 49194U 21083J   22021.58334491  .00038027  00000+0  96059-1 0  9994
2 49194  87.9086 294.9025 0001062 122.4937  55.2465 13.18659421  3319
ONEWEB-0326             
1 49195U 21083K   22021.58334491  .00037969  00000+0  95903-1 0  9996
2 49195  87.9091 294.9960 0001913  89.9876  36.2753 13.18666098  3304
ONEWEB-0327             
1 49196U 21083L   22021.58334491  .00037798  00000+0  95473-1 0  9999
2 49196  87.9094 294.9494 0002975  84.0647 115.6369 13.18665591  3314
ONEWEB-0328             
1 49197U 21083M   22021.91667824 -.00976516  00000+0 -12028+0 0  9991
2 49197  87.5155 283.1322 0017673 195.4654 292.9357 14.85896610 20593
ONEWEB-0331             
1 49198U 21083N   22021.58334491  .00038046  00000+0  96097-1 0  9991
2 49198  87.9106 294.9950 0002115  84.0719  64.2177 13.18665389  3314
ONEWEB-0333             
1 49199U 21083P   22021.91667824 -.00993944  00000+0 -11877+0 0  9998
2 49199  87.5135 283.1716 0017919 195.8081 265.0877 14.87177005 20591
ONEWEB-0334             
1 49200U 21083Q   22021.91667824 -.00038728  00000+0 -40628-2 0  9990
2 49200  87.2013 282.3923 0020991 189.2960 284.0428 14.89686286 20629
ONEWEB-0335             
1 49201U 21083R   22021.91667824 -.00981292  00000+0 -11937+0 0  9992
2 49201  87.5135 283.1913 0019549 186.2558  61.9167 14.86385198 20585
ONEWEB-0336             
1 49202U 21083S   22021.58334491 -.00903140  00000+0 -10787+0 0  9995
2 49202  87.5108 283.2604 0018662 183.2649 157.1450 14.86910942  3559
ONEWEB-0337             
1 49203U 21083T   22021.58334491  .00063319  00000+0  69697-2 0  9996
2 49203  87.5121 283.2752 0020311 190.3895 138.2621 14.87115102  3540
ONEWEB-0338             
1 49204U 21083U   22021.58334491  .00062791  00000+0  64934-2 0  9999
2 49204  87.2073 282.6055 0020065 198.3239 182.7608 14.89652034  3540
ONEWEB-0339             
1 49205U 21083V   22021.58334491 -.00927406  00000+0 -11013+0 0  9992
2 49205  87.5115 283.2484 0018221 189.9432 196.1611 14.87225566  3576
ONEWEB-0340             
1 49206U 21083W   22021.91667824 -.00040152  00000+0 -10230+0 0  9993
2 49206  87.9089 294.9375 0001724  87.3645 261.2342 13.18704931 19434
ONEWEB-0341             
1 49207U 21083X   22021.91667824 -.00041093  00000+0 -10471+0 0  9996
2 49207  87.9085 294.8276 0001586 123.5879 188.2477 13.18702485 19459
ONEWEB-0342             
1 49208U 21083Y   22021.91667824 -.00040365  00000+0 -42324-2 0  9993
2 49208  87.2036 282.4269 0021357 184.0796 347.0940 14.89708354 20623
ONEWEB-0343             
1 49209U 21083Z   22021.91667824 -.00040678  00000+0 -10365+0 0  9998
2 49209  87.9103 294.8823 0001202 139.6333 186.9559 13.18701970 19508
ONEWEB-0344             
1 49210U 21083AA  22021.58334491 -.00906245  00000+0 -10747+0 0  9999
2 49210  87.5110 283.2415 0019642 184.0985  88.1822 14.87192391  3548
ONEWEB-0345             
1 49211U 21083AB  22021.91667824 -.00990548  00000+0 -12158+0 0  9993
2 49211  87.5154 283.1642 0019324 186.0438 110.4650 14.86052794 20582
ONEWEB-0346             
1 49212U 21083AC  22021.91667824 -.00041585  00000+0 -10596+0 0  9996
2 49212  87.9069 294.8787 0002325  84.0599 213.1278 13.18707982 19449
ONEWEB-0348             
1 49213U 21083AD  22021.58334491  .00098252  00000+0  10117-1 0  9993
2 49213  87.2061 282.5873 0020466 189.3602 317.6976 14.89623297  3550
ONEWEB-0350             
1 49214U 21083AE  22021.91667824 -.00183499  00000+0 -20869-1 0  9995
2 49214  87.5115 283.1607 0016922 191.0428 213.4330 14.87283362 20586
ONEWEB-0351             
1 49215U 21083AF  22021.91667824 -.00042345  00000+0 -44471-2 0  9996
2 49215  87.1993 282.3583 0018538 181.7855  79.7928 14.89698120 20632
ONEWEB-0352             
1 49216U 21083AG  22021.91667824 -.00577405  00000+0 -67760-1 0  9992
2 49216  87.5112 283.1585 0017378 189.0685 171.9602 14.87337362 20588
ONEWEB-0354             
1 49217U 21083AH  22021.91667824 -.00039606  00000+0 -41570-2 0  9991
2 49217  87.2043 282.4323 0018855 178.3472 331.7234 14.89703253 20649
ONEWEB-0355             
1 49218U 21083AJ  22021.91667824 -.00970553  00000+0 -11995+0 0  9992
2 49218  87.5176 283.1274 0017128 194.4918 262.4086 14.85750116 20594
ONEWEB-0357             
1 49219U 21083AK  22021.91667824 -.00038600  00000+0 -40494-2 0  9990
2 49219  87.2037 282.4325 0019844 189.3580 257.9308 14.89702840 20616
ONEWEB-0332             
1 49279U 21090A   22021.58334491  .00054358  00000+0  58069-2 0  9991
2 49279  87.1966 258.4998 0005304 265.6194  87.4096 14.88520005  3561
ONEWEB-0347             
1 49280U 21090B   22021.91667824  .00001372  00000+0  14498-3 0  9996
2 49280  87.2001 258.4278 0007447 296.8381  84.9668 14.88461970 14923
ONEWEB-0349             
1 49281U 21090C   22021.58334491  .00057049  00000+0  57216-2 0  9997
2 49281  87.2029 258.4263 0009469 271.6284 323.6987 14.91029833  3564
ONEWEB-0353             
1 49282U 21090D   22021.58334491  .00053734  00000+0  57243-2 0  9995
2 49282  87.1977 258.5035 0006793 271.5706  95.7573 14.88629988  3559
ONEWEB-0356             
1 49283U 21090E   22021.58334491  .00053974  00000+0  54233-2 0  9998
2 49283  87.2020 258.4334 0005354 288.8579  77.4408 14.90993454  3551
ONEWEB-0358             
1 49284U 21090F   22021.58334491  .00053933  00000+0  57682-2 0  9995
2 49284  87.1966 258.4947 0005263 263.6822  97.9735 14.88475224  3547
ONEWEB-0359             
1 49285U 21090G   22021.91667824  .00001423  00000+0  15038-3 0  9999
2 49285  87.2006 258.4247 0006435 297.1483 150.3168 14.88480687 16192
ONEWEB-0360             
1 49286U 21090H   22021.58334491  .00055083  00000+0  55344-2 0  9998
2 49286  87.2029 258.4434 0004091 278.1425  67.3511 14.90994236  3566
ONEWEB-0361             
1 49287U 21090J   22021.91667824  .00001342  00000+0  13292-3 0  9991
2 49287  87.2024 258.3163 0006214 287.5221 135.9797 14.91039035 16231
ONEWEB-0362             
1 49288U 21090K   22021.91667824  .00000014  00000+0  00000+0 0  9996
2 49288  87.9246 264.4358 0005672 311.2726  42.9057 13.43084448 15713
ONEWEB-0363             
1 49289U 21090L   22021.91667824  .00001815  00000+0  18097-3 0  9996
2 49289  87.2045 258.3444 0003812 282.4081  30.5552 14.91009574 16231
ONEWEB-0364             
1 49290U 21090M   22021.91667824 -.00065929  00000+0 -71759-2 0  9999
2 49290  87.2013 258.4368 0008107 291.1274 153.1306 14.88488600 16198
ONEWEB-0365             
1 49291U 21090N   22021.91667824  .00000014  00000+0  00000+0 0  9990
2 49291  87.9264 264.4174 0006820 304.7402 224.9153 13.42215363 15694
ONEWEB-0366             
1 49292U 21090P   22021.91667824  .00001300  00000+0  13728-3 0  9995
2 49292  87.1991 258.4007 0005914 264.8619  34.5019 14.88456585 16210
ONEWEB-0367             
1 49293U 21090Q   22021.91667824  .00001777  00000+0  17695-3 0  9991
2 49293  87.2067 258.3698 0004159 280.2455   7.9618 14.91050087 16233
ONEWEB-0368             
1 49294U 21090R   22021.58334491  .00055051  00000+0  58870-2 0  9999
2 49294  87.2037 258.5766 0008123 278.5534 249.1320 14.88461508  3553
ONEWEB-0369             
1 49295U 21090S   22021.83334491  .00000014  00000+0  00000+0 0  9996
2 49295  87.9097 264.3997 0005558 295.9367 312.8748 13.41789528 15675
ONEWEB-0370             
1 49296U 21090T   22021.91667824  .00001558  00000+0  15485-3 0  9996
2 49296  87.2006 258.2922 0007809 280.4818 157.3524 14.91010789 16251
ONEWEB-0371             
1 49297U 21090U   22021.91667824  .00000014  00000+0  00000+0 0  9996
2 49297  87.8918 264.3481 0006479 345.9772 347.5625 13.51036193 15724
ONEWEB-0372             
1 49298U 21090V   22021.58334491  .00056382  00000+0  56568-2 0  9993
2 49298  87.2019 258.4112 0008807 275.3705 290.5106 14.91023568  3551
ONEWEB-0373             
1 49299U 21090W   22021.58334491  .00057199  00000+0  61209-2 0  9999
2 49299  87.1992 258.5244 0005596 267.9304 352.8437 14.88433886  3555
ONEWEB-0374             
1 49300U 21090X   22021.58334491  .00054889  00000+0  58722-2 0  9991
2 49300  87.2016 258.5635 0006297 303.0586  38.6466 14.88453996  3569
ONEWEB-0375             
1 49301U 21090Y   22021.91667824  .00001400  00000+0  14798-3 0  9995
2 49301  87.1965 258.3776 0003424 271.4309 121.7116 14.88485172 16219
ONEWEB-0376             
1 49302U 21090Z   22021.91667824  .00000014  00000+0  00000+0 0  9993
2 49302  87.9141 264.3843 0006078 330.8944 122.5046 13.45990721 15717
ONEWEB-0377             
1 49303U 21090AA  22021.91667824  .00001667  00000+0  17673-3 0  9997
2 49303  87.2012 258.4420 0006866 304.5056 154.8118 14.88479159 16196
ONEWEB-0378             
1 49304U 21090AB  22021.58334491  .00057027  00000+0  57222-2 0  9996
2 49304  87.1973 258.3573 0008482 243.9232  22.6676 14.91017088  3570
ONEWEB-0379             
1 49305U 21090AC  22021.91667824  .00002430  00000+0  25880-3 0  9997
2 49305  87.2005 258.4193 0008458 280.2613 203.9183 14.88492982 16204
ONEWEB-0380             
1 49306U 21090AD  22021.91667824  .00000014  00000+0  00000+0 0  9997
2 49306  87.9108 264.3994 0006086 319.4429 310.8355 13.40854473 15691
ONEWEB-0381             
1 49307U 21090AE  22021.58334491 -.00014730  00000+0 -14963-2 0  9990
2 49307  87.2053 258.4676 0005088 289.1123 121.0850 14.91051740  3579
ONEWEB-0382             
1 49308U 21090AF  22021.58334491  .00053971  00000+0  54146-2 0  9996
2 49308  87.2005 258.3872 0008976 254.9632 107.7769 14.91037279  3568
ONEWEB-0383             
1 49309U 21090AG  22021.91667824  .00001301  00000+0  13724-3 0  9991
2 49309  87.1994 258.4037 0008175 272.7486 158.9606 14.88477731 16227
ONEWEB-0384             
1 49310U 21090AH  22021.58334491  .00054550  00000+0  54780-2 0  9997
2 49310  87.1997 258.3971 0008416 251.9127  96.4915 14.90999016  3545
